STARLINK-1843
1 47133U 20088M   26092.90924693  .01674306  23070-2  14064-2 0  9995
2 47133  53.0315 118.6559 0007800  35.9241 324.2317 16.13558725296520
